NUSAT-1 (FRESCO)        
1 41557U 16033B   22076.57089025  .00012853  00000+0  41544-3 0  9997
2 41557  97.3849 174.3148 0011357 351.4240 123.0647 15.32158495323305
BEESAT-4                
1 41619U 16040W   22076.60216765  .00009549  00000+0  34767-3 0  9998
2 41619  97.2306 129.8067 0011574  86.5326 273.7238 15.28354271306684
CAS-2T & KS-1Q          
1 41847U 16066G   22076.45984534  .00000948  00000+0  15082-3 0  9991
2 41847  98.5619 141.1954 0365403 124.9105 238.6996 14.38418961281124
NAYIF-1 (EO-88)         
1 42017U 17008BX  22076.13806852  .00011625  00000+0  38543-3 0  9990
2 42017  97.2806 143.7630 0005001 203.3783 156.7232 15.31408446282930
ZHUHAI-1 02 (CAS-4B)    
1 42759U 17034B   22076.46741995  .00004140  00000+0  25584-3 0  9999
2 42759  43.0166 119.4192 0007257  63.8948  75.1358 15.11092422262438
ZHUHAI-1 01 (CAS-4A)    
1 42761U 17034D   22076.51029378  .00004268  00000+0  26268-3 0  9993
2 42761  43.0167 118.0384 0007540  64.9291  82.6494 15.11183074262447
MAX VALIER SAT          
1 42778U 17036P   22076.59528046  .00005750  00000+0  23076-3 0  9998
2 42778  97.2188 120.8975 0009594 294.0373  65.9861 15.25314264262897
RADFXSAT (FOX-1B)       
1 43017U 17073E   22076.35160728  .00002600  00000+0  20020-3 0  9996
2 43017  97.6866 334.3074 0252717 129.0233 233.3776 14.80544741233486
FOX-1D (AO-92)          
1 43137U 18004AC  22076.43680816  .00007157  00000+0  26953-3 0  9991
2 43137  97.3766 152.5302 0007300 336.9136  23.1774 15.27382320232292
DIWATA-2B               
1 43678U 18084H   22076.57456880  .00000682  00000+0  73111-4 0  9991
2 43678  97.9530 208.8627 0008789 224.5402 135.5123 14.91964039184152
ES'HAIL 2               
1 43700U 18090A   22076.29493701  .00000142  00000+0  00000+0 0  9999
2 43700   0.0036 194.7482 0002397 187.2471 284.8060  1.00272509 12109
FOX-1CLIFF (AO-95)      
1 43770U 18099N   22076.43119690  .00001309  00000+0  12193-3 0  9999
2 43770  97.6308 145.1651 0013466 220.2163 139.8063 14.95892795179258
ITASAT 1                
1 43786U 18099AE  22076.50261118  .00001120  00000+0  10450-3 0  9992
2 43786  97.6330 146.0989 0014285 212.8155 147.2180 14.96112299179306
JY1SAT (JO-97)          
1 43803U 18099AX  22076.14582683  .00002789  00000+0  25015-3 0  9990
2 43803  97.6302 145.4897 0014020 211.4813 148.5571 14.96484838179263
UWE-4                   
1 43880U 18111E   22076.47844048  .00002482  00000+0  21757-3 0  9991
2 43880  97.6744 344.4068 0010389 268.5006  91.5026 14.97532422175936
NEXUS (FO-99)           
1 43937U 19003F   22076.57567653  .00008875  00000+0  32225-3 0  9994
2 43937  97.1428 113.5999 0023431 120.4185 239.9375 15.28261334175938
PSAT2 (NO-104)          
1 44354U 19036R   22076.40370835  .00055464 -52662-5  59107-3 0  9992
2 44354  28.5238  90.9884 0268296  22.0424 339.1474 15.28855867150535
BRICSAT2 (NO-103)       
1 44355U 19036S   22076.41020830  .00216383  68692-5  89165-3 0  9996
2 44355  28.5212 335.2457 0116355 211.9543 147.3967 15.74716364151680
JAISAT-1                
1 44419U 19038F   22076.45603970  .00006928  00000+0  36643-3 0  9993
2 44419  97.6266  46.0109 0022185  90.3138 270.0636 15.15573000149119
DUCHIFAT-3              
1 44854U 19089C   22076.31989826  .00003844  00000+0  30675-3 0  9997
2 44854  36.9666 286.2373 0007255 203.8523 323.6351 15.00316378124088
CAS-6 (TO-108)          
1 44881U 19093C   22076.53131601  .00000649  00000+0  89148-4 0  9996
2 44881  97.8979 157.0499 0016166 122.2664 238.0124 14.81598256121164
RS-44 & BREEZE-KM R/B   
1 44909U 19096E   22076.56163581  .00000032  00000+0  81875-4 0  9990
2 44909  82.5179 291.3397 0217446 174.3288 186.0354 12.79712325103753
ORBITAL FACTORY 2 (OF-2)
1 45113U 19071C   22076.46546384  .00017098  00000+0  42171-3 0  9991
2 45113  51.6403 150.3254 0008970 203.6815 156.3758 15.40605423119178
HUSKYSAT-1 (HO-107)     
1 45119U 19071J   22076.49723118  .00014472  00000+0  36334-3 0  9999
2 45119  51.6395 149.7696 0008679 198.8757 161.1908 15.40206869119174
BY70-2                  
1 45857U 20042B   22076.42340979  .00006719  00000+0  92727-3 0  9994
2 45857  97.9598 154.2280 0011468  61.3928 298.8441 14.78433872 91855
SALSAT                  
1 46495U 20068K   22076.56611971  .00001852  00000+0  13822-3 0  9991
2 46495  97.7232  17.9221 0015387 223.9784 136.0218 15.04011507 80374
BY70-3                  
1 46839U 20079N   22076.56090799  .00020414  00000+0  55002-3 0  9995
2 46839  97.2082 150.1051 0004919 310.7361 166.0737 15.37845288 76102
RADFXSAT-2 (AO-109)     
1 47311U 21002C   22076.25103858  .00006023  00000+0  26024-3 0  9997
2 47311  60.6879 348.8820 0016548 203.2630 156.7711 15.23574830 64407
UVSQ-SAT                
1 47438U 21006AB  22076.41097539  .00003867  00000+0  21371-3 0  9990
2 47438  97.4495 137.3410 0011251 229.3636 130.6618 15.14436405 63340
DIY-1 (ARDUIQUBE)       
1 47963U 21022AH  22076.55008140  .00011116  00000+0  67881-3 0  9998
2 47963  97.5410 339.1559 0020134  89.1213 271.2323 15.10294435 53064
XW-3 (CAS-9)            
1 50466U 21131B   22076.42506431  .00000122  00000+0  54666-4 0  9996
2 50466  98.5862 153.7072 0005515  73.0524 287.1267 14.38450748 11686
